SWARM A                 
1 39452U 13067B   26164.92898066  .00010636  00000+0  18326-3 0  9995
2 39452  87.3335  57.4527 0003012  95.0433 265.1172 15.50895990705742
SWARM C                 
1 39453U 13067C   26164.92886469  .00010705  00000+0  18446-3 0  9990
2 39453  87.3334  56.0337 0003011  95.2735 264.8869 15.50893869705700
BRITE-CA1 (TORONTO)     
1 40020U 14033L   26164.91233455  .00000658  00000+0  10669-3 0  9991
2 40020  97.9734 293.9007 0077281 287.6929  71.5853 14.72672671641738
OCO 2                   
1 40059U 14035A   26164.92800949  .00000363  00000+0  90692-4 0  9992
2 40059  98.2018 106.2707 0001493  86.2521 273.8849 14.57108896635578
BRITE-PL2 (HEWELIUSZ)   
1 40119U 14049B   26164.89183339  .00001469  00000+0  14099-3 0  9991
2 40119  97.9094 276.8664 0015177 118.2447 242.0307 14.94583917640955
MMS 1                   
1 40482U 15011A   26165.00002315 -.00000416  00000+0  00000+0 0  9997
2 40482  72.1261 348.8261 8309643 167.3626 333.2952  0.28580287  1395
MMS 2                   
1 40483U 15011B   26165.00002315 -.00000416  00000+0  00000+0 0  9998
2 40483  72.1262 348.8283 8310425 167.3683 333.2835  0.28580440  1395
MMS 3                   
1 40484U 15011C   26165.00002315 -.00000416  00000+0  00000+0 0  9999
2 40484  72.1286 348.8329 8309120 167.3606 333.2680  0.28593122  1397
MMS 4                   
1 40485U 15011D   26165.00002315 -.00000416  00000+0  00000+0 0  9990
2 40485  72.1254 348.8286 8309218 167.3706 333.2679  0.28580174  1395
ASTROSAT                
1 40930U 15052A   26164.92961600  .00001505  00000+0  10146-3 0  9996
2 40930   5.9957 178.8044 0008037 344.6010  15.3873 14.82502494579345
DAMPE                   
1 41173U 15078A   26164.96536806  .00000977  00000+0  35383-4 0  9997
2 41173  97.4555 170.4161 0013801  87.2822 272.9998 15.30776905584056
PISAT                   
1 41784U 16059B   26164.94257178  .00000816  00000+0  14659-3 0  9999
2 41784  97.8179 165.5348 0028121 213.4292 146.5139 14.68978670519264
HXMT (HUIYAN)           
1 42758U 17034A   26164.97696622  .00003792  00000+0  19019-3 0  9990
2 42758  43.0127 200.9170 0030284 126.1186 234.2472 15.18461473497178
FLYING LAPTOP           
1 42831U 17042G   26164.91927654  .00005338  00000+0  41950-3 0  9994
2 42831  97.4665 320.5786 0019459 132.3226 227.9651 15.01129459485966
ZHANGHENG 1-01 (CSES-1) 
1 43194U 18015C   26164.91493934  .00007108  00000+0  32474-3 0  9995
2 43194  97.6860 330.5077 0017011 278.7626  81.1682 15.20774752464147
SALSAT                  
1 46495U 20068K   26164.94040297  .00008079  00000+0  28292-3 0  9997
2 46495  97.8844 167.8072 0008282 321.8659  38.1993 15.29757675314864
IXPE                    
1 49954U 21121A   26165.00002315  .00011629  00000+0  63473-3 0  9993
2 49954   0.2323 341.4682 0006887  30.8132 187.5490 15.10224983  5843
SMILE                   
1 69123U 26109A   26144.65318427 -.00001976  00000+0 -42379-3 0  9994
2 69123  70.0007 229.2745 0009123 259.5159 100.4951 14.57062785   802
