OBJECT_NAME,OBJECT_ID,EPOCH,MEAN_MOTION,ECCENTRICITY,INCLINATION,RA_OF_ASC_NODE,ARG_OF_PERICENTER,MEAN_ANOMALY,EPHEMERIS_TYPE,CLASSIFICATION_TYPE,NORAD_CAT_ID,ELEMENT_SET_NO,REV_AT_EPOCH,BSTAR,MEAN_MOTION_DOT,MEAN_MOTION_DDOT
SWARM A,2013-067B,2026-06-13T22:17:43.929024,15.50895990,.00030128,87.3335,57.4527,95.0433,265.1172,0,U,39452,999,70574,.18325856E-3,.10636E-3,0
SWARM C,2013-067C,2026-06-13T22:17:33.909216,15.50893869,.00030118,87.3334,56.0337,95.2735,264.8869,0,U,39453,999,70570,.18445855E-3,.10705E-3,0
BRITE-CA1 (TORONTO),2014-033L,2026-06-13T21:53:45.705120,14.72672671,.00772816,97.9734,293.9007,287.6929,71.5853,0,U,40020,999,64173,.10668759E-3,.658E-5,0
OCO 2,2014-035A,2026-06-13T22:16:20.019936,14.57108896,.00014937,98.2018,106.2707,86.2521,273.8849,0,U,40059,999,63557,.90692051E-4,.363E-5,0
BRITE-PL2 (HEWELIUSZ),2014-049B,2026-06-13T21:24:14.404896,14.94583917,.0015177,97.9094,276.8664,118.2447,242.0307,0,U,40119,999,64095,.14099021E-3,.1469E-4,0
MMS 1,2015-011A,2026-06-14T00:00:02.000160,0.28580287,.83096431,72.1261,348.8261,167.3626,333.2952,0,U,40482,999,139,0,-.416E-5,0
MMS 2,2015-011B,2026-06-14T00:00:02.000160,0.28580440,.83104255,72.1262,348.8283,167.3683,333.2835,0,U,40483,999,139,0,-.416E-5,0
MMS 3,2015-011C,2026-06-14T00:00:02.000160,0.28593122,.83091201,72.1286,348.8329,167.3606,333.2680,0,U,40484,999,139,0,-.416E-5,0
MMS 4,2015-011D,2026-06-14T00:00:02.000160,0.28580174,.8309218,72.1254,348.8286,167.3706,333.2679,0,U,40485,999,139,0,-.416E-5,0
ASTROSAT,2015-052A,2026-06-13T22:18:38.822400,14.82502494,.00080373,5.9957,178.8044,344.6010,15.3873,0,U,40930,999,57934,.10146371E-3,.1505E-4,0
DAMPE,2015-078A,2026-06-13T23:10:07.800384,15.30776905,.00138015,97.4555,170.4161,87.2822,272.9998,0,U,41173,999,58405,.35383238E-4,.977E-5,0
PISAT,2016-059B,2026-06-13T22:37:18.201792,14.68978670,.00281217,97.8179,165.5348,213.4292,146.5139,0,U,41784,999,51926,.14659319E-3,.816E-5,0
HXMT (HUIYAN),2017-034A,2026-06-13T23:26:49.881408,15.18461473,.00302844,43.0127,200.9170,126.1186,234.2472,0,U,42758,999,49717,.19018714E-3,.3792E-4,0
FLYING LAPTOP,2017-042G,2026-06-13T22:03:45.493056,15.01129459,.00194594,97.4665,320.5786,132.3226,227.9651,0,U,42831,999,48596,.41949675E-3,.5338E-4,0
ZHANGHENG 1-01 (CSES-1),2018-015C,2026-06-13T21:57:30.758976,15.20774752,.00170116,97.6860,330.5077,278.7626,81.1682,0,U,43194,999,46414,.3247369E-3,.7108E-4,0
SALSAT,2020-068K,2026-06-13T22:34:10.816608,15.29757675,.00082821,97.8844,167.8072,321.8659,38.1993,0,U,46495,999,31486,.28291677E-3,.8079E-4,0
IXPE,2021-121A,2026-06-14T00:00:02.000160,15.10224983,.00068876,0.2323,341.4682,30.8132,187.5490,0,U,49954,999,584,.63473017E-3,.11629E-3,0
SMILE,2026-109A,2026-05-24T15:40:35.120928,14.57062785,.00091232,70.0007,229.2745,259.5159,100.4951,0,U,69123,999,80,-.42378883E-3,-.1976E-4,0
